FLOCK 4X-44             
1 50994U 22002L   22034.18948865  .00002670  00000+0  15557-3 0  9993
2 50994  97.5078 103.5464 0012616 166.8963 193.2598 15.12799967  3111
MDASAT-1A               
1 50995U 22002M   22034.45913781  .00003345  00000+0  19595-3 0  9999
2 50995  97.4994 103.7696 0010699 157.0675 203.1035 15.12439879  3152
FLOCK 4X-2              
1 50996U 22002N   22033.85837338  .00003116  00000+0  18076-3 0  9995
2 50996  97.5068 103.2186 0012524 168.1432 192.0096 15.12829767  3060
FLOCK 4X-20             
1 50997U 22002P   22033.85828865  .00003147  00000+0  18249-3 0  9997
2 50997  97.5065 103.2192 0012479 169.4836 190.6658 15.12833531  3068
2022-002Q               
1 50998U 22002Q   22034.18814826  .00004360  00000+0  25075-3 0  9990
2 50998  97.4987 103.5167 0012330 156.6120 203.5674 15.12929972  3119
2022-002R               
1 50999U 22002R   22033.85743222  .00005151  00000+0  29553-3 0  9999
2 50999  97.4987 103.1912 0012315 157.5196 202.6577 15.12930515  3061
FLOCK 4X-30             
1 51000U 22002S   22034.51921587  .00003260  00000+0  18867-3 0  9994
2 51000  97.5012 103.8482 0012810 158.5934 201.5835 15.12876253  3169
FOSSASAT-2E5            
1 51001U 22002T   22034.17931188  .00009245  00000+0  51565-3 0  9996
2 51001  97.5088 103.5609 0014991 160.8433 199.3365 15.13694801  3118
KEPLER-18 (BLIP-A)      
1 51002U 22002U   22033.85724235  .00003840  00000+0  22128-3 0  9992
2 51002  97.5009 103.1979 0012641 159.8020 200.3714 15.12923487  3067
FLOCK 4X-22             
1 51003U 22002V   22034.45247250  .00002498  00000+0  14529-3 0  9991
2 51003  97.5048 103.8020 0012461 168.9008 191.2500 15.12920357  3156
FLOCK 4X-5              
1 51004U 22002W   22034.51853951  .00003064  00000+0  17731-3 0  9998
2 51004  97.5023 103.8528 0013078 160.4298 199.7438 15.12924618  3164
FLOCK 4X-41             
1 51005U 22002X   22034.18770945  .00002490  00000+0  14478-3 0  9990
2 51005  97.5005 103.5233 0012716 158.1348 202.0429 15.12931019  3119
FLOCK 4X-3              
1 51006U 22002Y   22034.18749344  .00002673  00000+0  15506-3 0  9996
2 51006  97.5063 103.5447 0013137 166.4251 193.7336 15.12946725  3117
FLOCK 4X-18             
1 51007U 22002Z   22034.51811101  .00003025  00000+0  17498-3 0  9999
2 51007  97.5026 103.8530 0013323 161.1476 199.0251 15.12953507  3167
ICEYE X16               
1 51008U 22002AA  22034.65565169  .00004717  00000+0  27359-3 0  9991
2 51008  97.5040 103.9810 0011779 159.6110 200.5593 15.12589210  3181
FLOCK 4X-37             
1 51009U 22002AB  22034.51800395  .00003248  00000+0  18752-3 0  9995
2 51009  97.5071 103.8727 0013325 164.6692 195.4946 15.12961868  3167
FLOCK 4X-15             
1 51010U 22002AC  22034.18656161  .00003323  00000+0  19145-3 0  9991
2 51010  97.5078 103.5492 0013493 164.5607 195.6038 15.13026901  3113
FLOCK 4X-29             
1 51011U 22002AD  22034.45101093  .00002460  00000+0  14268-3 0  9993
2 51011  97.5016 103.7877 0013377 159.3193 200.8582 15.13029398  3158
FLOCK 4X-27             
1 51012U 22002AE  22033.85569752  .00003215  00000+0  18529-3 0  9990
2 51012  97.5060 103.2200 0013336 168.9726 191.1800 15.13031285  3069
2022-002AF              
1 51013U 22002AF  22033.86334843  .00005160  00000+0  29986-3 0  9993
2 51013  97.4990 103.1844 0010450 160.3367 199.8269 15.12482735  3068
2022-002AG              
1 51014U 22002AG  22034.44975790  .00006824  00000+0  38710-3 0  9994
2 51014  97.5148 103.8286 0014086 161.9803 198.1930 15.13199177  3156
FLOCK 4X-12             
1 51015U 22002AH  22033.85542705  .00002893  00000+0  16700-3 0  9992
2 51015  97.5062 103.2191 0013575 164.0367 196.1294 15.13053071  3065
FLOCK 4X-25             
1 51016U 22002AJ  22033.85550742  .00003137  00000+0  18085-3 0  9993
2 51016  97.5047 103.2172 0013053 171.1691 188.9772 15.13042821  3069
FLOCK 4X-1              
1 51017U 22002AK  22033.85531137  .00003132  00000+0  18045-3 0  9992
2 51017  97.5028 103.2061 0013607 163.3243 196.8438 15.13061056  3065
FLOCK 4X-42             
1 51018U 22002AL  22033.85541363  .00003223  00000+0  18567-3 0  9995
2 51018  97.5013 103.2026 0013277 158.9628 201.2151 15.13047384  3062
2022-002AM              
1 51019U 22002AM  22033.72074673  .00011533  00000+0  64802-3 0  9993
2 51019  97.5157 103.1155 0014071 164.5723 195.5940 15.13378966  3048
FLOCK 4X-16             
1 51020U 22002AN  22034.51617518  .00003226  00000+0  18557-3 0  9990
2 51020  97.5013 103.8538 0013564 157.8044 202.3777 15.13099817  3163
LEMUR-2-RAMONAMAE       
1 51021U 22002AP  22034.19731102  .00005440  00000+0  31789-3 0  9993
2 51021  97.5055 103.5271 0009993 170.1333 190.0096 15.12266042  3118
LEMUR-2-KING-JULIEN     
1 51022U 22002AQ  22033.86653781  .00005067  00000+0  29651-3 0  9993
2 51022  97.5034 103.1950 0009762 169.1209 191.0235 15.12250141  3063
FLOCK 4X-38             
1 51023U 22002AR  22033.85484059  .00003025  00000+0  17427-3 0  9993
2 51023  97.5067 103.2218 0013778 166.0154 194.1462 15.13093990  3069
FLOCK 4X-32             
1 51024U 22002AS  22034.44999255  .00002449  00000+0  14179-3 0  9999
2 51024  97.5069 103.8078 0013819 160.9762 199.1988 15.13098600  3157
GRIZU-263A              
1 51025U 22002AT  22034.44865952  .00007332  00000+0  41454-3 0  9998
2 51025  97.5157 103.8330 0014427 161.3189 198.8575 15.13289560  3156
FLOCK 4X-26             
1 51026U 22002AU  22034.18510052  .00002382  00000+0  13788-3 0  9997
2 51026  97.5029 103.5325 0013961 163.6164 196.5521 15.13123378  3112
FLOCK 4X-43             
1 51027U 22002AV  22033.85421932  .00002990  00000+0  17202-3 0  9999
2 51027  97.5026 103.2074 0013843 162.1375 198.0345 15.13143518  3068
FLOCK 4X-13             
1 51028U 22002AW  22034.51533653  .00003105  00000+0  17846-3 0  9991
2 51028  97.5023 103.8583 0013915 158.3368 201.8455 15.13155905  3165
FLOCK 4X-39             
1 51029U 22002AX  22034.18432854  .00002495  00000+0  14401-3 0  9991
2 51029  97.5023 103.5339 0013814 158.2504 201.9316 15.13182156  3111
2022-002AY              
1 51030U 22002AY  22034.19396229  .00002573  00000+0  15152-3 0  9990
2 51030  97.5041 103.5288 0010999 162.4921 197.6691 15.12462235  3112
2022-002AZ              
1 51031U 22002AZ  22034.44787911  .00004818  00000+0  27368-3 0  9997
2 51031  97.5112 103.8235 0014427 161.1955 198.9812 15.13298450  3150
2022-002BA              
1 51032U 22002BA  22034.18060082  .00013283  00000+0  73989-3 0  9998
2 51032  97.4935 103.5139 0012372 149.1971 210.9989 15.13674460  3119
2022-002BB              
1 51033U 22002BB  22034.18318264  .00006230  00000+0  35233-3 0  9991
2 51033  97.5106 103.5617 0014266 162.2845 197.8886 15.13341599  3115
FLOCK 4X-23             
1 51034U 22002BC  22033.85656821  .00003413  00000+0  19685-3 0  9992
2 51034  97.5081 103.2230 0013348 164.8584 195.3049 15.12965482  3064
FLOCK 4X-17             
1 51035U 22002BD  22033.86706735  .00003057  00000+0  18078-3 0  9993
2 51035  97.5062 103.2055 0009621 167.6127 192.5342 15.12173435  3066
LEMUR-2-ROHOVITHSA      
1 51036U 22002BE  22034.46248452  .00003871  00000+0  22772-3 0  9998
2 51036  97.5064 103.7904 0010089 169.5610 190.5832 15.12203955  3158
FLOCK 4X-10             
1 51037U 22002BF  22033.85893055  .00003044  00000+0  17690-3 0  9991
2 51037  97.5076 103.2186 0012575 166.5708 193.5860 15.12786820  3067
MDASAT-1C               
1 51038U 22002BG  22033.86415203  .00003934  00000+0  23007-3 0  9995
2 51038  97.5081 103.2163 0010713 170.6054 189.5379 15.12402094  3069
FLOCK 4X-36             
1 51039U 22002BH  22034.19511089  .00002635  00000+0  15543-3 0  9995
2 51039  97.5075 103.5379 0010879 168.8450 191.3024 15.12379916  3117
FLOCK 4X-21             
1 51040U 22002BJ  22034.52742316  .00003182  00000+0  18745-3 0  9998
2 51040  97.5049 103.8554 0009974 162.9425 197.2143 15.12277121  3166
FLOCK 4X-31             
1 51041U 22002BK  22033.86593603  .00003136  00000+0  18488-3 0  9991
2 51041  97.5019 103.1888 0010089 160.4667 199.6952 15.12259895  3068
FLOCK 4X-34             
1 51042U 22002BL  22034.19680501  .00002699  00000+0  15966-3 0  9994
2 51042  97.5072 103.5345 0010347 169.3444 190.8008 15.12256553  3117
FLOCK 4X-6              
1 51043U 22002BM  22034.19672099  .00002582  00000+0  15290-3 0  9999
2 51043  97.5055 103.5307 0010012 164.8646 195.2886 15.12260519  3110
2022-002BN              
1 51044U 22002BN  22034.13050754  .00003147  00000+0  18551-3 0  9993
2 51044  97.5003 103.4450 0010017 159.4644 200.6992 15.12267404  3103
FLOCK 4X-28             
1 51045U 22002BP  22033.86531519  .00003277  00000+0  19274-3 0  9993
2 51045  97.5029 103.1912 0010601 158.1500 202.0184 15.12310148  3066
VZLUSAT-3             
1 51046U 22002BQ  22033.86512099  .00003071  00000+0  18085-3 0  9997
2 51046  97.5064 103.2091 0010223 168.3085 191.8385 15.12318660  3061
FLOCK 4X-9              
1 51047U 22002BR  22034.46026023  .00002584  00000+0  15260-3 0  9992
2 51047  97.5070 103.7952 0010758 168.1393 192.0093 15.12353027  3158
FLOCK 4X-35             
1 51048U 22002BS  22033.86500765  .00003271  00000+0  19235-3 0  9996
2 51048  97.5007 103.1879 0010233 162.7578 197.4002 15.12326773  3061
FLOCK 4X-11             
1 51049U 22002BT  22034.52802249  .00003303  00000+0  19471-3 0  9991
2 51049  97.5016 103.8401 0009926 164.3761 195.7778 15.12233014  3166
2022-002BU              
1 51050U 22002BU  22034.46227021  .00003471  00000+0  20455-3 0  9995
2 51050  97.5074 103.7960 0009905 168.4754 191.6705 15.12210450  3158
2022-002BV              
1 51051U 22002BV  22034.19741366  .00004532  00000+0  26576-3 0  9998
2 51051  97.5017 103.5137 0009695 161.8598 198.2980 15.12224974  3119
FLOCK 4X-40             
1 51052U 22002BW  22034.52894410  .00003293  00000+0  19447-3 0  9997
2 51052  97.5014 103.8379 0009565 162.8785 197.2770 15.12170187  3160
